#aV2010  4 27  0  0   .00000000      96 DD+AD WGS84 FIT  NGA
## 1581 172800.00000000   900.00000000 55313  .0000000000000
+   31     1  2  3  4  5  6  7  8  9 10 11 12 13 14 15 16 17
+         18 19 20 21 22 23 24 26 27 28 29 30 31 32  0  0  0
+          0  0  0  0  0  0  0  0  0  0  0  0  0  0  0  0  0
+          0  0  0  0  0  0  0  0  0  0  0  0  0  0  0  0  0
+          0  0  0  0  0  0  0  0  0  0  0  0  0  0  0  0  0
++         0  0  0  0  0  0  0  0  0  0  0  0  0  0  0  0  0
++         0  0  0  0  0  0  0  0  0  0  0  0  0  0  0  0  0
++         0  0  0  0  0  0  0  0  0  0  0  0  0  0  0  0  0
++         0  0  0  0  0  0  0  0  0  0  0  0  0  0  0  0  0
++         0  0  0  0  0  0  0  0  0  0  0  0  0  0  0  0  0
%c cc cc ccc ccc cccc cccc cccc cccc ccccc ccccc ccccc ccccc
%c cc cc ccc ccc cccc cccc cccc cccc ccccc ccccc ccccc ccccc
%f  0.0000000  0.000000000  0.00000000000  0.000000000000000
%f  0.0000000  0.000000000  0.00000000000  0.000000000000000
%i    0    0    0    0      0      0      0      0         0
%i    0    0    0    0      0      0      0      0         0
/*      NGA, ST. LOUIS,MO.                                  
/*   EPHEMERIS COMPUTED FROM  3 DAYS OF DATA                
/* CCCCCCCCCCCCCCCCCCCCCCCCCCCCCCCCCCCCCCCCCCCCCCCCCCCCCCCCC
/* CCCCCCCCCCCCCCCCCCCCCCCCCCCCCCCCCCCCCCCCCCCCCCCCCCCCCCCCC
*  2010  4 27 23  0   .00000000                                                 
P  1  15922.913115   -770.135596  21168.511662   -113.973133                    
V  1  11203.164134  24661.853514  -7349.290656      -.040774                    
P  2  -8924.150731  14317.227296  20381.686491    250.536675                    
V  2 -25994.187632  -2990.583612  -9720.892144       .035398                    
P  3   8391.302745 -24510.841607  -5308.615032    547.607014                    
V  3   6533.553347  -3791.783112  30211.257101       .050028                    
P  4 -22947.335218   6714.932983  11770.858717     69.632863                    
V  4 -14843.921673  -3947.487489 -25947.955813       .084577                    
P  5   -767.228557  22128.680667  14587.216625     -2.057547                    
V  5 -10008.810116 -15826.321688  23532.682423      -.004063                    
P  6  13057.044910 -22988.992642  -1365.187376    655.302938                    
V  6   4252.340457    325.819128  31177.367622      -.102037                    
P  7 -24935.075953  -6646.560803   6630.862665       .057754                    
V  7   8543.762205  -1516.914966  30397.950627      -.003996                    
P  8 -26200.665867   -137.571904  -5851.663105      5.118235                    
V  8  -7001.609407  -2376.009261  30979.704154       .002415                    
P  9   9025.917759  14491.574845 -20902.585165      3.320384                    
V  9 -25250.471371   -674.349286 -11629.990961       .021924                    
P 10  -8240.652284  15589.328088  19569.150800    -41.335273                    
V 10 -11709.743752 -22571.020204  13268.974485      -.008903                    
P 11 -14644.446756 -12892.252439 -18417.808792    -59.138862                    
V 11  22477.489818  -5540.579785 -13826.311969      -.023108                    
P 12  12066.518569  23714.565929   1443.035618   -121.702190                    
V 12  -1423.625564   2597.400128 -31794.599818       .043409                    
P 13 -13194.448405  -6457.538794  21988.627042    304.960631                    
V 13  17393.489095 -22161.459911   3883.349058      -.003100                    
P 14  19786.259023 -12283.224651 -12517.548520     39.084603                    
V 14  -8354.056731  13898.573203 -26677.985313       .044872                    
P 15  -3231.696662  22425.451572 -13752.399644   -280.940349                    
V 15 -11765.834047  13245.142628  24452.455730       .052043                    
P 16   5891.277892 -18006.117775  18544.964644    -65.908756                    
V 16  10846.960208  20926.288610  17182.176784      -.038526                    
P 17 -19766.451784  11756.562407 -12996.501926    147.166976                    
V 17   7840.591025 -15010.174837 -25509.500732       .025300                    
P 18  17862.199716  11884.609517 -15628.140221     64.661313                    
V 18   6191.514637  19403.443692  21093.641583       .024682                    
P 19   3812.233426 -21418.857013 -14989.852427    -31.042268                    
V 19  13929.256475 -13455.846133  23014.882285      -.026228                    
P 20 -14248.789899 -22150.329073   3507.893251     57.020771                    
V 20    978.000126  -5703.661579 -30777.090571      -.006407                    
P 21  26387.713836   4612.109615   2841.170103    -56.377015                    
V 21  -3443.982809   2776.074419  30456.852505      -.025911                    
P 22  16176.497849  -1444.223971 -20867.152295    173.476802                    
V 22  10233.255007  24943.259543   6072.276188      -.008211                    
P 23  -7280.408352 -14607.389830  20860.058998    372.794542                    
V 23  16058.331565 -21230.618749  -9553.862092      -.013241                    
P 24  26217.863863   1258.966791  -3089.862232    282.646207                    
V 24   3581.309588   3848.748803  31334.385090       .030673                    
P 26   7784.987992  13420.072202 -22021.275170    -44.720493                    
V 26 -16986.320251  20593.145844   7137.769434      -.047500                    
P 27   6140.574357  14244.026078 -20903.875383    146.918319                    
V 27 -28080.322041   -181.240760  -7972.178816       .034271                    
P 28 -16182.703120  -1899.087090 -20560.932105    -17.540678                    
V 28 -10092.885897 -25170.875219   9758.788184       .009035                    
P 29  13365.611459   7547.446462  21770.078280    115.844389                    
V 29 -16105.769786  22191.535229   2242.723316       .027841                    
P 30  17313.810445  17074.661713  10356.598996    237.568441                    
V 30   4047.439938  13379.932326 -27725.089989       .034298                    
P 31  21075.622582  -7990.338836  14399.339345    -39.762586                    
V 31  17630.480538   3054.706424 -24294.302704       .022011                    
P 32  -6961.059357 -25542.988481  -3433.129575     41.830452                    
V 32   4071.792738   3540.117871 -31113.119823      -.085544                    
EOF
